{"type":"FeatureCollection","features":[{"type":"Feature","id":1131247,"geometry":{"type":"Polygon","coordinates":[[[151.230041,-33.9197673],[151.2306059,-33.9198407],[151.2307287,-33.9191953],[151.2304705,-33.9191588],[151.2304838,-33.9190985],[151.230112,-33.9190484],[151.2300995,-33.9191052],[151.2300504,-33.9192113],[151.2301448,-33.9192251],[151.230041,-33.9197673]],[[151.2301872,-33.9196782],[151.2302039,-33.9196087],[151.2302216,-33.9195353],[151.23014,-33.9195245],[151.2301696,-33.9193802],[151.2302475,-33.9193919],[151.2302709,-33.9192406],[151.2305269,-33.9192784],[151.2304428,-33.9197138],[151.2303761,-33.9197045],[151.2301872,-33.9196782]]]},"properties":{"id":1131247,"name":"Rupert Myers Building","building":"university","osmId":"relation/1131247"}},{"type":"Feature","id":1178128,"geometry":{"type":"Polygon","coordinates":[[[151.2274354,-33.9156634],[151.2269488,-33.9156013],[151.226887,-33.9159344],[151.2273735,-33.9159966],[151.2274354,-33.9156634]],[[151.2270186,-33.9157165],[151.2272994,-33.9157534],[151.2272752,-33.9158802],[151.2269944,-33.9158432],[151.2270186,-33.9157165]]]},"properties":{"id":1178128,"name":"International House","building":"university","osmId":"relation/1178128"}},{"type":"Feature","id":2328645,"geometry":{"type":"Polygon","coordinates":[[[151.2325429,-33.9167905],[151.2326775,-33.9168091],[151.2327184,-33.9168148],[151.232762,-33.9168208],[151.2328882,-33.9168383],[151.2331808,-33.9168787],[151.2332782,-33.9163937],[151.2328662,-33.9163367],[151.2326403,-33.9163055],[151.2325429,-33.9167905]],[[151.2327386,-33.9164167],[151.2328458,-33.9164317],[151.2331348,-33.9164719],[151.2330752,-33.9167664],[151.2327825,-33.9167257],[151.232679,-33.9167112],[151.2327386,-33.9164167]]]},"properties":{"id":2328645,"name":"Morven Brown - C20","building":"office","osmId":"relation/2328645"}},{"type":"Feature","id":2637829,"geometry":{"type":"Polygon","coordinates":[[[151.2297625,-33.9160217],[151.2295204,-33.9159863],[151.2295359,-33.915913],[151.2295513,-33.9158405],[151.2295545,-33.9158256],[151.2295798,-33.9156919],[151.2297242,-33.9157108],[151.2297527,-33.9155627],[151.2295829,-33.9155413],[151.2295867,-33.9155144],[151.229514,-33.9155056],[151.2294973,-33.9155895],[151.2294763,-33.9155867],[151.2294845,-33.9155458],[151.2292152,-33.915509],[151.2292073,-33.9155485],[151.2291785,-33.9155445],[151.2291973,-33.9154589],[151.2291235,-33.91545],[151.2291057,-33.9155349],[151.2290851,-33.9155318],[151.2290929,-33.9154908],[151.2288248,-33.9154542],[151.2288172,-33.9154968],[151.2287864,-33.9154928],[151.2288035,-33.9154039],[151.2287302,-33.9153957],[151.2287194,-33.9154518],[151.228532,-33.9154244],[151.2285073,-33.9155384],[151.2286699,-33.9155597],[151.228646,-33.9156993],[151.2286428,-33.9157163],[151.2286291,-33.9157901],[151.2286145,-33.9158669],[151.2285896,-33.9158623],[151.2285913,-33.9158553],[151.228496,-33.9158433],[151.2284969,-33.9158331],[151.2284087,-33.9158201],[151.2283987,-33.9158867],[151.2284613,-33.9158944],[151.2284607,-33.915904],[151.2284486,-33.915902],[151.2284416,-33.9159442],[151.2286393,-33.915973],[151.2286355,-33.9159928],[151.2286841,-33.9159992],[151.2286891,-33.915975],[151.2290497,-33.9160211],[151.2297492,-33.9161177],[151.2297906,-33.916123],[151.2297986,-33.9160849],[151.2298206,-33.9160881],[151.2298133,-33.9161257],[151.2298545,-33.9161316],[151.2298598,-33.9161053],[151.2298849,-33.9161088],[151.2299023,-33.9160195],[151.2299203,-33.9160234],[151.229915,-33.9160494],[151.2302794,-33.9161173],[151.2303167,-33.9161253],[151.2303127,-33.9161456],[151.2303751,-33.9161548],[151.2303806,-33.9161309],[151.230628,-33.9161705],[151.2306444,-33.91608],[151.2303883,-33.9160495],[151.2303912,-33.9160339],[151.2304038,-33.9160352],[151.2304134,-33.9159571],[151.2304156,-33.9159455],[151.2304579,-33.9157536],[151.2304432,-33.9157509],[151.2304517,-33.9157074],[151.2304699,-33.9157085],[151.230465,-33.9157271],[151.2305883,-33.9157442],[151.2305938,-33.9157095],[151.2306119,-33.9157118],[151.2306099,-33.9157225],[151.2306374,-33.9157258],[151.2306401,-33.9157154],[151.2307375,-33.9157293],[151.2307335,-33.9157553],[151.2309301,-33.9157823],[151.2309699,-33.9157889],[151.2309741,-33.9157641],[151.2309975,-33.9157666],[151.2309947,-33.9157744],[151.2310253,-33.9157769],[151.2310259,-33.9157678],[151.2311891,-33.9157931],[151.2311986,-33.9157428],[151.231035,-33.9157188],[151.231007,-33.9157155],[151.2310021,-33.9157427],[151.2309795,-33.9157389],[151.2309858,-33.9157135],[151.2309575,-33.9157099],[151.2306729,-33.9156699],[151.2306653,-33.9157058],[151.2306417,-33.9157016],[151.2306487,-33.9156674],[151.2304829,-33.915643],[151.2304749,-33.9156797],[151.2304594,-33.9156777],[151.2304709,-33.9156272],[151.2303974,-33.9156173],[151.2303863,-33.9156688],[151.2303411,-33.915662],[151.2303496,-33.9156199],[151.2300282,-33.9155741],[151.2300196,-33.9156162],[151.2299716,-33.9156095],[151.229981,-33.9155428],[151.2299117,-33.9155349],[151.229901,-33.9156248],[151.2298794,-33.915621],[151.2298547,-33.9157485],[151.2298423,-33.9158128],[151.2298291,-33.9158764],[151.2298124,-33.9159484],[151.2297953,-33.9160301],[151.2297625,-33.9160217]],[[151.2287818,-33.9155755],[151.229067,-33.9156129],[151.2290404,-33.9157525],[151.2290374,-33.915768],[151.229023,-33.9158439],[151.2290095,-33.9159149],[151.2287243,-33.9158775],[151.2287385,-33.9158041],[151.2287523,-33.9157297],[151.2287554,-33.9157133],[151.2287818,-33.9155755]],[[151.2291916,-33.9156195],[151.2294662,-33.9156572],[151.2294375,-33.9158085],[151.2294337,-33.9158272],[151.22942,-33.9158961],[151.2294056,-33.9159678],[151.2291298,-33.9159298],[151.2291439,-33.9158593],[151.2291585,-33.9157865],[151.2291622,-33.915768],[151.2291916,-33.9156195]],[[151.2299788,-33.9156675],[151.2303575,-33.9157238],[151.2303159,-33.9159417],[151.2303027,-33.9160204],[151.2300675,-33.9159852],[151.2299158,-33.9159642],[151.2299298,-33.91589],[151.2299398,-33.9158246],[151.2299788,-33.9156675]]]},"properties":{"id":2637829,"name":"UNSW Village","building":"university","osmId":"relation/2637829"}},{"type":"Feature","id":15937009,"geometry":{"type":"Polygon","coordinates":[[[151.2342522,-33.9176242],[151.2345944,-33.9176726],[151.234595,-33.9176681],[151.2346037,-33.9176686],[151.234627,-33.9176424],[151.2346631,-33.9176462],[151.2347266,-33.9173426],[151.2347495,-33.9173455],[151.2347932,-33.9173034],[151.2347947,-33.9172949],[151.2347688,-33.9172447],[151.2347083,-33.917235],[151.2346956,-33.9172523],[151.2346768,-33.9172068],[151.2346253,-33.9171998],[151.2345908,-33.9171951],[151.2344179,-33.9171716],[151.2343801,-33.9171664],[151.2343611,-33.9171638],[151.2342799,-33.9171528],[151.2342835,-33.9171275],[151.2342261,-33.9171182],[151.2342093,-33.917187],[151.2341869,-33.9172072],[151.2341839,-33.9172237],[151.2342169,-33.9172916],[151.2341915,-33.9172873],[151.2341326,-33.9175758],[151.2341742,-33.9175821],[151.2342296,-33.917297],[151.2342606,-33.9173013],[151.2342057,-33.9175821],[151.2342357,-33.9175872],[151.2342522,-33.9176242]],[[151.2343637,-33.917317],[151.2346125,-33.9173522],[151.2345748,-33.9175427],[151.2343267,-33.9175094],[151.2343637,-33.917317]]]},"properties":{"id":15937009,"name":"Unknown building","building":"roof","osmId":"relation/15937009"}},{"type":"Feature","id":9784728,"geometry":{"type":"Polygon","coordinates":[[[151.2308165,-33.9194925],[151.2307469,-33.9198639],[151.2314632,-33.9199564],[151.2315674,-33.9194005],[151.2312771,-33.919363],[151.2312806,-33.9193441],[151.2312827,-33.9193331],[151.2312148,-33.9193244],[151.2312352,-33.9192158],[151.230877,-33.9191696],[151.2308165,-33.9194925]]]},"properties":{"id":9784728,"name":"Barker Street Carpark","building":"yes","osmId":"way/9784728"}},{"type":"Feature","id":9784749,"geometry":{"type":"Polygon","coordinates":[[[151.2337455,-33.9182372],[151.2336785,-33.9185291],[151.2352327,-33.9187501],[151.2352814,-33.9185081],[151.235307,-33.9184852],[151.2353078,-33.9184742],[151.23532,-33.9184759],[151.2353296,-33.9184193],[151.2352828,-33.9184131],[151.2352775,-33.918442],[151.2352516,-33.9184381],[151.2351945,-33.9184294],[151.2351717,-33.9184259],[151.2347889,-33.9183813],[151.2337455,-33.9182372]]]},"properties":{"id":9784749,"name":"Botany Street Carpark","building":"university","osmId":"way/9784749"}},{"type":"Feature","id":45229208,"geometry":{"type":"Polygon","coordinates":[[[151.2273925,-33.9167386],[151.2274,-33.9170015],[151.2274492,-33.9170057],[151.2273135,-33.9172],[151.2277047,-33.9172002],[151.2277823,-33.9172322],[151.2278819,-33.9172409],[151.2279158,-33.9171941],[151.2279502,-33.9172107],[151.2280686,-33.9172534],[151.2282007,-33.9170715],[151.2281734,-33.9170747],[151.2281449,-33.916843],[151.2280339,-33.9168455],[151.2273925,-33.9167386]]]},"properties":{"id":45229208,"name":"Law & Justice Building - F8","building":"university","osmId":"way/45229208"}},{"type":"Feature","id":45229216,"geometry":{"type":"Polygon","coordinates":[[[151.2272524,-33.9169825],[151.2268791,-33.91693],[151.2268865,-33.916894],[151.2267426,-33.9168737],[151.2267346,-33.9169126],[151.2267069,-33.9169087],[151.2264531,-33.9168731],[151.226429,-33.9169914],[151.2266842,-33.9170273],[151.2272276,-33.9171036],[151.2272524,-33.9169825]]]},"properties":{"id":45229216,"name":"Blockhouse - G6","building":"university","osmId":"way/45229216"}},{"type":"Feature","id":45229218,"geometry":{"type":"Polygon","coordinates":[[[151.2272865,-33.9175217],[151.2272865,-33.9176376],[151.2273025,-33.9176463],[151.2273293,-33.9176295],[151.2273394,-33.9176389],[151.2272705,-33.9176881],[151.2272742,-33.9178308],[151.2273298,-33.9178659],[151.2273552,-33.9178357],[151.2273732,-33.9178478],[151.227424,-33.9178036],[151.22743,-33.9178092],[151.2274701,-33.9177803],[151.2275164,-33.9177531],[151.2275654,-33.9177274],[151.2276028,-33.9177134],[151.2275072,-33.9175655],[151.2275148,-33.9175601],[151.2274952,-33.9175463],[151.2272865,-33.9175217]]]},"properties":{"id":45229218,"name":"Sam Cracknell Pavillion - H8","building":"university","osmId":"way/45229218"}},{"type":"Feature","id":45229232,"geometry":{"type":"Polygon","coordinates":[[[151.2299929,-33.9173782],[151.2300474,-33.9170886],[151.2296699,-33.9170397],[151.22963,-33.9172515],[151.2296091,-33.9172487],[151.2295944,-33.9173266],[151.2299929,-33.9173782]]]},"properties":{"id":45229232,"name":"Science Theatre - F13","building":"university","osmId":"way/45229232"}},{"type":"Feature","id":45229242,"geometry":{"type":"Polygon","coordinates":[[[151.2295221,-33.9169538],[151.2293745,-33.9169341],[151.2292996,-33.9173202],[151.2292946,-33.9173452],[151.2292936,-33.9173516],[151.2292534,-33.9175595],[151.2294009,-33.9175792],[151.2294412,-33.9173713],[151.2295221,-33.9169538]]]},"properties":{"id":45229242,"name":"Dalton - F12","building":"university","osmId":"way/45229242"}},{"type":"Feature","id":45229601,"geometry":{"type":"Polygon","coordinates":[[[151.2315689,-33.9183414],[151.2313753,-33.9193027],[151.2315162,-33.919333],[151.2315155,-33.9193403],[151.2317272,-33.9193675],[151.231922,-33.9183941],[151.2317503,-33.9183548],[151.2315689,-33.9183414]]]},"properties":{"id":45229601,"name":"Willis Annex - J18","building":"university","osmId":"way/45229601"}},{"type":"Feature","id":45229607,"geometry":{"type":"Polygon","coordinates":[[[151.2290668,-33.9166209],[151.2290312,-33.9168104],[151.2294634,-33.9168685],[151.2301937,-33.9169643],[151.2301967,-33.9169444],[151.230226,-33.9168146],[151.2302243,-33.9168005],[151.230115,-33.916783],[151.229974,-33.9167632],[151.2294147,-33.9166862],[151.2293699,-33.9166807],[151.2293843,-33.9166011],[151.2293589,-33.916601],[151.229324,-33.9165974],[151.2292961,-33.916592],[151.2292755,-33.9165869],[151.2292629,-33.9166478],[151.2290668,-33.9166209]]]},"properties":{"id":45229607,"name":"UNSW Business School - E12","building":"university","osmId":"way/45229607"}},{"type":"Feature","id":45229649,"geometry":{"type":"Polygon","coordinates":[[[151.2315736,-33.9173662],[151.2316884,-33.9173836],[151.2317631,-33.9170115],[151.2317676,-33.9169907],[151.2317408,-33.9169885],[151.2317512,-33.9169193],[151.2317595,-33.9169039],[151.231574,-33.9168919],[151.2315579,-33.9169504],[151.2314941,-33.9172774],[151.2312138,-33.9172465],[151.2312204,-33.9172119],[151.2311876,-33.9172074],[151.2311498,-33.9172024],[151.2311441,-33.91723],[151.23062,-33.9171464],[151.2307044,-33.9167179],[151.2305065,-33.9166925],[151.2304784,-33.916846],[151.230226,-33.9168146],[151.2301967,-33.9169444],[151.2304399,-33.9169752],[151.2304104,-33.9171243],[151.2304372,-33.9171265],[151.2304311,-33.9171607],[151.2304238,-33.9171955],[151.2303863,-33.9172356],[151.2303648,-33.9172779],[151.2303728,-33.9173246],[151.2304104,-33.9173624],[151.230464,-33.9173869],[151.2305177,-33.9173736],[151.2305499,-33.9173535],[151.2305767,-33.9173291],[151.2305874,-33.9173112],[151.2305992,-33.9173128],[151.2307952,-33.9173396],[151.2308152,-33.9173423],[151.2311475,-33.9173877],[151.231207,-33.9173958],[151.2311748,-33.9175761],[151.2312419,-33.9175828],[151.2312392,-33.9175962],[151.2313261,-33.9176069],[151.2313626,-33.9174047],[151.2314055,-33.9174092],[151.231416,-33.9173605],[151.2315715,-33.9173825],[151.2315736,-33.9173662]]]},"properties":{"id":45229649,"name":"Quadrangle - E15","building":"university","osmId":"way/45229649"}},{"type":"Feature","id":45230019,"geometry":{"type":"Polygon","coordinates":[[[151.2315395,-33.9176651],[151.2314322,-33.9176496],[151.2311682,-33.9176124],[151.2311346,-33.9177919],[151.2314024,-33.9178294],[151.2313978,-33.9178441],[151.2313935,-33.917869],[151.231475,-33.9178778],[151.231484,-33.9178533],[151.2314834,-33.9178423],[151.2315222,-33.9178466],[151.2316409,-33.9178634],[151.2318295,-33.9178902],[151.232079,-33.9179244],[151.2321141,-33.9177394],[151.2319084,-33.9177042],[151.2319166,-33.9176603],[151.2319812,-33.9176686],[151.2320043,-33.9175449],[151.2320962,-33.9170517],[151.2318833,-33.9170244],[151.2318476,-33.9172223],[151.2317716,-33.9176434],[151.2318376,-33.9176509],[151.2318346,-33.917674],[151.2318285,-33.9177055],[151.2315511,-33.9176661],[151.2315395,-33.9176651]]]},"properties":{"id":45230019,"name":"Electrical Engineering","building":"university","osmId":"way/45230019"}},{"type":"Feature","id":45230027,"geometry":{"type":"Polygon","coordinates":[[[151.2314399,-33.9175789],[151.2314362,-33.9176303],[151.2314322,-33.9176496],[151.2315395,-33.9176651],[151.2315429,-33.9176449],[151.2315474,-33.9176258],[151.231523,-33.917621],[151.2315322,-33.9175988],[151.2315384,-33.9175904],[151.2314878,-33.9175849],[151.2314399,-33.9175789]]]},"properties":{"id":45230027,"name":"Unknown building","building":"university","osmId":"way/45230027"}},{"type":"Feature","id":45230422,"geometry":{"type":"Polygon","coordinates":[[[151.2336354,-33.9175044],[151.2335864,-33.9177506],[151.2337013,-33.9177663],[151.2337587,-33.9177742],[151.2337995,-33.917569],[151.2337166,-33.9175576],[151.2336699,-33.9175512],[151.2336781,-33.9175103],[151.2336354,-33.9175044]]]},"properties":{"id":45230422,"name":"Unknown building","building":"university","osmId":"way/45230422"}},{"type":"Feature","id":45230512,"geometry":{"type":"Polygon","coordinates":[[[151.2343611,-33.9171638],[151.2343801,-33.9171664],[151.2343817,-33.9171592],[151.2344193,-33.9171649],[151.2344179,-33.9171716],[151.2345908,-33.9171951],[151.234592,-33.9171876],[151.2346269,-33.9171924],[151.2346253,-33.9171998],[151.2346768,-33.9172068],[151.2347045,-33.9172104],[151.2347139,-33.9171708],[151.23478,-33.9171345],[151.2347625,-33.9171324],[151.2348018,-33.9169133],[151.234824,-33.916916],[151.2347135,-33.9167839],[151.2347055,-33.9168256],[151.234586,-33.9168095],[151.2344508,-33.9167917],[151.2344584,-33.916752],[151.2343264,-33.9168271],[151.2343255,-33.9168382],[151.2343304,-33.9168389],[151.2342883,-33.9170546],[151.2342835,-33.9170788],[151.2343611,-33.9171638]]]},"properties":{"id":45230512,"name":"Sir John Clancy Auditorium - C24","building":"university","osmId":"way/45230512"}},{"type":"Feature","id":45230537,"geometry":{"type":"Polygon","coordinates":[[[151.2357229,-33.9170423],[151.2357711,-33.9169547],[151.2357993,-33.9169584],[151.2358808,-33.9165904],[151.2358583,-33.9165897],[151.2358532,-33.9165403],[151.235807,-33.9165494],[151.2358001,-33.9165808],[151.2350493,-33.9164756],[151.235028,-33.9165678],[151.2350817,-33.9165881],[151.2350714,-33.9166542],[151.235052,-33.9166991],[151.2349935,-33.9167182],[151.2349708,-33.9167702],[151.2350425,-33.9167676],[151.2351252,-33.9167551],[151.2356584,-33.9168283],[151.2356747,-33.9168358],[151.2356823,-33.9168436],[151.2357161,-33.9169208],[151.2356785,-33.9170149],[151.2357229,-33.9170423]]]},"properties":{"id":45230537,"name":"Lowy Cancer Research Centre - C25","building":"university","osmId":"way/45230537"}},{"type":"Feature","id":45230790,"geometry":{"type":"Polygon","coordinates":[[[151.232991,-33.918215],[151.2329234,-33.9182054],[151.2326387,-33.9181641],[151.2325168,-33.9181477],[151.2324852,-33.9183012],[151.2329594,-33.9183685],[151.232991,-33.918215]]]},"properties":{"id":45230790,"name":"Civil Engineering - H20","building":"university","osmId":"way/45230790"}},{"type":"Feature","id":45230803,"geometry":{"type":"Polygon","coordinates":[[[151.2325895,-33.9173134],[151.2326028,-33.9172457],[151.2326284,-33.9172492],[151.2326606,-33.9172535],[151.2326683,-33.9172145],[151.2326793,-33.9171582],[151.2326808,-33.9171508],[151.2326938,-33.9170841],[151.232701,-33.9170475],[151.2326752,-33.9170445],[151.232649,-33.9170405],[151.232667,-33.9169488],[151.2326528,-33.9169469],[151.2324143,-33.9169148],[151.2323967,-33.9170051],[151.2323743,-33.9170021],[151.2323415,-33.9169976],[151.2323063,-33.9171773],[151.2323332,-33.9171809],[151.2323619,-33.9171848],[151.2323432,-33.9172802],[151.2325895,-33.9173134]]]},"properties":{"id":45230803,"name":"Patricia O'Shane Building K-E19","building":"university","osmId":"way/45230803"}},{"type":"Feature","id":45488706,"geometry":{"type":"Polygon","coordinates":[[[151.229943,-33.917427],[151.2299358,-33.9174692],[151.2299093,-33.9176236],[151.2299352,-33.9176276],[151.230582,-33.9177155],[151.2306428,-33.917722],[151.2307487,-33.9177432],[151.2307564,-33.9176973],[151.231013,-33.9177355],[151.2310402,-33.9175756],[151.2307563,-33.9175353],[151.2306765,-33.9175249],[151.2305695,-33.9175091],[151.229943,-33.917427]]]},"properties":{"id":45488706,"name":"Robert Webster - G14","building":"university","osmId":"way/45488706"}},{"type":"Feature","id":45488789,"geometry":{"type":"Polygon","coordinates":[[[151.2305695,-33.9175091],[151.2306765,-33.9175249],[151.2307563,-33.9175353],[151.2307626,-33.917505],[151.2307952,-33.9173396],[151.2305992,-33.9173128],[151.230572,-33.9174801],[151.2305695,-33.9175091]]]},"properties":{"id":45488789,"name":"Webster Theatres - G15","building":"university","osmId":"way/45488789"}},{"type":"Feature","id":45488927,"geometry":{"type":"Polygon","coordinates":[[[151.2300811,-33.9178547],[151.2300721,-33.9179124],[151.2300548,-33.9180111],[151.2303095,-33.9180554],[151.2303199,-33.9180259],[151.2303486,-33.9180302],[151.2303635,-33.9180482],[151.2303813,-33.9180493],[151.2303862,-33.9180173],[151.2304153,-33.9180218],[151.230414,-33.9180322],[151.2305051,-33.9180458],[151.2306507,-33.9180629],[151.2306332,-33.9181555],[151.2307572,-33.918174],[151.2307954,-33.917978],[151.230711,-33.9179659],[151.2307169,-33.9179402],[151.2305437,-33.9179174],[151.2305271,-33.917916],[151.230507,-33.9179146],[151.2300811,-33.9178547]]]},"properties":{"id":45488927,"name":"Anita B. Lawrence Centre (East & Centre Wing) - H13","building":"university","osmId":"way/45488927"}},{"type":"Feature","id":45489007,"geometry":{"type":"Polygon","coordinates":[[[151.2300721,-33.9179124],[151.2300811,-33.9178547],[151.2298435,-33.9178386],[151.2294009,-33.9177779],[151.2291942,-33.9177486],[151.2291713,-33.9178817],[151.2291971,-33.9178871],[151.2293251,-33.9179042],[151.229351,-33.9179062],[151.2293497,-33.9179273],[151.2293676,-33.9179302],[151.2294047,-33.9179362],[151.2293986,-33.9179626],[151.2294998,-33.9179912],[151.2296044,-33.9180141],[151.2296362,-33.9180215],[151.2296667,-33.9180309],[151.2297088,-33.9180428],[151.2297361,-33.9179734],[151.229813,-33.9179829],[151.2299779,-33.9180045],[151.2300052,-33.9179087],[151.2300721,-33.9179124]]]},"properties":{"id":45489007,"name":"Anita B. Lawrence Centre (West Wing) - H13","building":"university","osmId":"way/45489007"}},{"type":"Feature","id":45489051,"geometry":{"type":"Polygon","coordinates":[[[151.2290826,-33.918459],[151.2292158,-33.9184767],[151.2292588,-33.918254],[151.2293029,-33.9182598],[151.2293148,-33.9181982],[151.2292694,-33.9181922],[151.229311,-33.9179774],[151.2293251,-33.9179042],[151.2291971,-33.9178871],[151.2291836,-33.9179567],[151.2290826,-33.918459]]]},"properties":{"id":45489051,"name":"Newton - J12","building":"university","osmId":"way/45489051"}},{"type":"Feature","id":45489639,"geometry":{"type":"Polygon","coordinates":[[[151.2299852,-33.9181247],[151.2300526,-33.9182693],[151.2301661,-33.918281],[151.2302871,-33.9181665],[151.2302586,-33.9181469],[151.2302231,-33.9181257],[151.2301885,-33.9181124],[151.2301438,-33.9181016],[151.2300965,-33.9181001],[151.2300512,-33.918104],[151.2300162,-33.9181121],[151.2299852,-33.9181247]]]},"properties":{"id":45489639,"name":"Keith Burrows Theatre - J14","building":"university","osmId":"way/45489639"}},{"type":"Feature","id":45489666,"geometry":{"type":"Polygon","coordinates":[[[151.2301661,-33.918281],[151.2300526,-33.9182693],[151.2300348,-33.9182676],[151.2299738,-33.918374],[151.2300166,-33.9183913],[151.2299589,-33.9185011],[151.2302126,-33.918537],[151.2302067,-33.9184437],[151.2302321,-33.9184404],[151.2302482,-33.9183747],[151.2302791,-33.918378],[151.2302875,-33.9183254],[151.2302626,-33.9183224],[151.2302663,-33.9182959],[151.2301661,-33.918281]]]},"properties":{"id":45489666,"name":"Physics Theatre - K14","building":"university","osmId":"way/45489666"}},{"type":"Feature","id":45490050,"geometry":{"type":"Polygon","coordinates":[[[151.2308731,-33.9182417],[151.2307292,-33.9182232],[151.2306465,-33.9186062],[151.2304373,-33.9185806],[151.2304293,-33.9186307],[151.2303609,-33.9186218],[151.2303851,-33.9184882],[151.2304163,-33.9183156],[151.2304351,-33.9182117],[151.2304427,-33.9181699],[151.2303428,-33.9181571],[151.2303206,-33.9181543],[151.2302875,-33.9183254],[151.2302791,-33.918378],[151.2302471,-33.9185342],[151.2302126,-33.918537],[151.2299589,-33.9185011],[151.2299384,-33.9185294],[151.2298513,-33.9185183],[151.2299317,-33.9181043],[151.2297869,-33.9180865],[151.2297185,-33.9184481],[151.2295227,-33.9184259],[151.2295133,-33.918476],[151.2294906,-33.9184733],[151.229465,-33.9184703],[151.2295442,-33.9180542],[151.2293966,-33.9180375],[151.2293215,-33.918447],[151.2292411,-33.9184337],[151.229233,-33.9184915],[151.2293162,-33.9185049],[151.2293054,-33.9185739],[151.2302051,-33.9186962],[151.230271,-33.9187052],[151.2302683,-33.9187342],[151.2307646,-33.9187942],[151.2308731,-33.9182417]]]},"properties":{"id":45490050,"name":"Old Main - K15","building":"university","osmId":"way/45490050"}},{"type":"Feature","id":45490366,"geometry":{"type":"Polygon","coordinates":[[[151.2292734,-33.9170775],[151.2287729,-33.9170095],[151.2287531,-33.9171097],[151.2286244,-33.9170923],[151.2286431,-33.9169972],[151.2284077,-33.9169653],[151.2283889,-33.917061],[151.2283697,-33.9170584],[151.2283375,-33.9172218],[151.2283951,-33.9172296],[151.2283921,-33.9172446],[151.2283791,-33.9172429],[151.2283581,-33.9173493],[151.2286414,-33.9173878],[151.2290039,-33.9174371],[151.2290118,-33.9173968],[151.229022,-33.9173982],[151.2290856,-33.9174068],[151.2291035,-33.9173161],[151.2292232,-33.9173324],[151.2292276,-33.9173102],[151.2292734,-33.9170775]]]},"properties":{"id":45490366,"name":"June Griffith Building - F10","building":"university","osmId":"way/45490366"}},{"type":"Feature","id":45490562,"geometry":{"type":"Polygon","coordinates":[[[151.2341451,-33.9173673],[151.2341846,-33.9171596],[151.2342166,-33.9170053],[151.233995,-33.9169737],[151.2339735,-33.9170879],[151.2339659,-33.9171284],[151.23395,-33.9172127],[151.2339244,-33.9173372],[151.2341451,-33.9173673]]]},"properties":{"id":45490562,"name":"Matthews Theatres","building":"university","osmId":"way/45490562"}},{"type":"Feature","id":45490780,"geometry":{"type":"Polygon","coordinates":[[[151.2281217,-33.9159299],[151.2281603,-33.9156967],[151.2281684,-33.9156475],[151.2281751,-33.9156073],[151.2282173,-33.9153525],[151.228051,-33.9153306],[151.2280472,-33.9153472],[151.2276384,-33.9152921],[151.2275912,-33.9155277],[151.2275836,-33.9155657],[151.2275727,-33.91562],[151.2275703,-33.9156321],[151.2275462,-33.9157523],[151.2275391,-33.9157879],[151.2275264,-33.9158516],[151.2281217,-33.9159299]]]},"properties":{"id":45490780,"name":"Unknown building","building":"university","osmId":"way/45490780"}},{"type":"Feature","id":45560472,"geometry":{"type":"Polygon","coordinates":[[[151.2270437,-33.9193115],[151.2269491,-33.9187523],[151.2265719,-33.9187963],[151.2266458,-33.9192325],[151.2266993,-33.9192263],[151.2267128,-33.9193058],[151.2267614,-33.9193002],[151.2267687,-33.9193435],[151.2270437,-33.9193115]]]},"properties":{"id":45560472,"name":"Warrane College - M7","building":"dormitory","osmId":"way/45560472"}},{"type":"Feature","id":45560477,"geometry":{"type":"Polygon","coordinates":[[[151.225382,-33.917286],[151.2253169,-33.9176311],[151.2257566,-33.9176882],[151.2257598,-33.9176714],[151.2257878,-33.9176748],[151.2257883,-33.9176835],[151.2257965,-33.9176856],[151.2257998,-33.9176662],[151.2258176,-33.9175789],[151.22583,-33.9175803],[151.2258339,-33.9175647],[151.2258456,-33.9175657],[151.2258857,-33.9173499],[151.2257819,-33.9173343],[151.2257694,-33.9174101],[151.2257375,-33.9175792],[151.225456,-33.9175427],[151.225488,-33.9173732],[151.2255015,-33.9173016],[151.225382,-33.917286]]]},"properties":{"id":45560477,"name":"New College Village - H3","building":"university","osmId":"way/45560477"}},{"type":"Feature","id":45560776,"geometry":{"type":"Polygon","coordinates":[[[151.2268193,-33.9180859],[151.2266946,-33.9181007],[151.2266933,-33.9180932],[151.2265705,-33.9181077],[151.2265718,-33.9181156],[151.2264421,-33.918131],[151.2264845,-33.9183774],[151.2264737,-33.9183787],[151.2264879,-33.9184606],[151.2264991,-33.9184593],[151.2265415,-33.9187055],[151.2266673,-33.9186906],[151.2266694,-33.918703],[151.2267979,-33.9186877],[151.2267954,-33.9186731],[151.2269197,-33.9186584],[151.2268775,-33.9184129],[151.2268883,-33.9184116],[151.2268736,-33.9183267],[151.2268611,-33.9183282],[151.2268214,-33.9180977],[151.2268193,-33.9180859]]]},"properties":{"id":45560776,"name":"New College - L6","building":"university","osmId":"way/45560776"}},{"type":"Feature","id":45560897,"geometry":{"type":"Polygon","coordinates":[[[151.2275283,-33.9191532],[151.2274693,-33.9194437],[151.2277657,-33.9194871],[151.2277657,-33.9194982],[151.2282257,-33.9195639],[151.2282498,-33.9194359],[151.228282,-33.9194414],[151.2282941,-33.9193813],[151.2283209,-33.9193858],[151.2283303,-33.919329],[151.2283062,-33.9193268],[151.2283169,-33.9192656],[151.2282069,-33.9192511],[151.2281989,-33.9192957],[151.2281063,-33.9192856],[151.2281157,-33.9192378],[151.2280084,-33.9192244],[151.227999,-33.9192689],[151.2279065,-33.9192567],[151.2279146,-33.9192122],[151.2278032,-33.9191955],[151.2277925,-33.9192478],[151.2277241,-33.9192389],[151.2277362,-33.9191799],[151.2275283,-33.9191532]]]},"properties":{"id":45560897,"name":"Shalom College - N9","building":"university","osmId":"way/45560897"}},{"type":"Feature","id":45561234,"geometry":{"type":"Polygon","coordinates":[[[151.2286762,-33.9195015],[151.2285979,-33.9194903],[151.2285951,-33.9195018],[151.2284437,-33.9194795],[151.2284466,-33.919469],[151.2284175,-33.9194651],[151.2284428,-33.9193419],[151.2285413,-33.9193535],[151.2285393,-33.9193654],[151.2286211,-33.9193756],[151.228619,-33.9193862],[151.2286916,-33.919396],[151.2286832,-33.9194394],[151.2287148,-33.9194428],[151.2286913,-33.9195704],[151.2287708,-33.9195807],[151.2287845,-33.9195044],[151.2288345,-33.9195085],[151.2288573,-33.9195127],[151.2288511,-33.9195416],[151.228949,-33.9195535],[151.2289384,-33.9196208],[151.2290151,-33.9196307],[151.2290288,-33.9195655],[151.2290065,-33.919562],[151.2290204,-33.9195005],[151.2290509,-33.9195032],[151.2290631,-33.9194387],[151.2291124,-33.9194465],[151.2291153,-33.9194345],[151.229336,-33.9194642],[151.229333,-33.9194775],[151.2294121,-33.9194876],[151.2294166,-33.9194591],[151.2295662,-33.9194792],[151.229552,-33.9195555],[151.2295808,-33.9195602],[151.2295652,-33.9196321],[151.2294138,-33.9196137],[151.2294163,-33.9196014],[151.229344,-33.9195906],[151.2293274,-33.9196546],[151.2294028,-33.9196661],[151.229401,-33.9196784],[151.2295556,-33.9196986],[151.2295566,-33.9196868],[151.2296336,-33.9196972],[151.2296578,-33.9195677],[151.2296297,-33.9195645],[151.2296539,-33.9194389],[151.2295773,-33.9194287],[151.2295794,-33.9194145],[151.2294281,-33.9193936],[151.2294224,-33.9194228],[151.2293479,-33.919413],[151.229351,-33.9193993],[151.2290444,-33.9193579],[151.2290472,-33.919342],[151.2289477,-33.9193296],[151.2289514,-33.9193089],[151.2288681,-33.9192986],[151.228823,-33.9192927],[151.2288105,-33.9193589],[151.2288575,-33.919365],[151.2289565,-33.9193773],[151.2289535,-33.9193939],[151.2290384,-33.9194045],[151.2290315,-33.9194335],[151.2289858,-33.9194277],[151.2289743,-33.9194929],[151.2288677,-33.9194776],[151.2288747,-33.9194465],[151.228845,-33.9194427],[151.2287965,-33.9194362],[151.2287929,-33.9194546],[151.2287627,-33.9194506],[151.2287949,-33.9193098],[151.2287185,-33.9192997],[151.2287161,-33.9193135],[151.2287084,-33.919312],[151.2287079,-33.9193194],[151.2285527,-33.9192993],[151.2285547,-33.9192897],[151.228403,-33.9192681],[151.2283929,-33.9193325],[151.2283645,-33.9193291],[151.2283383,-33.9194548],[151.2283679,-33.9194595],[151.2283537,-33.9195225],[151.2284323,-33.919535],[151.2284287,-33.9195476],[151.2285851,-33.9195672],[151.2285864,-33.9195563],[151.228665,-33.9195671],[151.2286762,-33.9195015]]]},"properties":{"id":45561234,"name":"Barker Street Apartments - N13","building":"university","osmId":"way/45561234"}},{"type":"Feature","id":45561366,"geometry":{"type":"Polygon","coordinates":[[[151.2297063,-33.9194473],[151.2296902,-33.9195262],[151.2298433,-33.9195467],[151.2298586,-33.9194698],[151.2297063,-33.9194473]]]},"properties":{"id":45561366,"name":"Unknown building","building":"university","osmId":"way/45561366"}},{"type":"Feature","id":45561370,"geometry":{"type":"Polygon","coordinates":[[[151.229755,-33.9195694],[151.2297427,-33.9196347],[151.2298198,-33.9196448],[151.2298322,-33.9195795],[151.229755,-33.9195694]]]},"properties":{"id":45561370,"name":"Unknown building","building":"university","osmId":"way/45561370"}},{"type":"Feature","id":45561523,"geometry":{"type":"Polygon","coordinates":[[[151.2275052,-33.9191703],[151.2274105,-33.9191589],[151.2274021,-33.9192071],[151.2274196,-33.9192092],[151.2273921,-33.9193181],[151.2271256,-33.919288],[151.2270956,-33.9194234],[151.2274536,-33.9194667],[151.2275052,-33.9191703]]]},"properties":{"id":45561523,"name":"SDN House at Pooh Corner","building":"yes","osmId":"way/45561523"}},{"type":"Feature","id":45604203,"geometry":{"type":"Polygon","coordinates":[[[151.2322839,-33.917587],[151.2325598,-33.9176281],[151.2328097,-33.9176653],[151.2328312,-33.917566],[151.2327915,-33.9175601],[151.2327977,-33.9175312],[151.2328543,-33.9175396],[151.233096,-33.9175755],[151.2331158,-33.9174835],[151.2328074,-33.9174376],[151.2327029,-33.9174221],[151.2325874,-33.9174049],[151.2325692,-33.9174892],[151.2325241,-33.9174824],[151.2325169,-33.9175158],[151.2323061,-33.9174844],[151.2322839,-33.917587]]]},"properties":{"id":45604203,"name":"John Goodsell - F20","building":"university","osmId":"way/45604203"}},{"type":"Feature","id":45604251,"geometry":{"type":"Polygon","coordinates":[[[151.2325226,-33.9166555],[151.2323688,-33.9166338],[151.2323379,-33.9167817],[151.2323173,-33.9167963],[151.2323125,-33.9168039],[151.2323043,-33.9168195],[151.2323011,-33.9168364],[151.2323026,-33.9168519],[151.2323082,-33.9168668],[151.2323178,-33.9168801],[151.2323307,-33.9168914],[151.2323429,-33.9168984],[151.2323563,-33.9169035],[151.2323734,-33.9169068],[151.232391,-33.9169071],[151.2324061,-33.9169048],[151.2324205,-33.9169002],[151.2324355,-33.9168922],[151.2324481,-33.9168818],[151.2324504,-33.9168789],[151.2324562,-33.9168717],[151.2324621,-33.9168605],[151.232465,-33.916851],[151.2324663,-33.9168391],[151.2324656,-33.9168326],[151.2324648,-33.9168257],[151.232487,-33.9168289],[151.2325226,-33.9166555]]]},"properties":{"id":45604251,"name":"Unknown building","building":"university","osmId":"way/45604251"}},{"type":"Feature","id":45604576,"geometry":{"type":"Polygon","coordinates":[[[151.226501,-33.9155146],[151.2265379,-33.9154725],[151.2265788,-33.9152796],[151.2265083,-33.915268],[151.2264994,-33.9151402],[151.2258392,-33.9151427],[151.2258416,-33.9153836],[151.2259388,-33.9153825],[151.2259446,-33.91543],[151.2261232,-33.9154285],[151.2261237,-33.9155197],[151.226501,-33.9155146]]]},"properties":{"id":45604576,"name":"Swimming Pool - B4","building":"university","osmId":"way/45604576"}},{"type":"Feature","id":45604587,"geometry":{"type":"Polygon","coordinates":[[[151.2265379,-33.9154725],[151.2266092,-33.9154828],[151.2267479,-33.9155029],[151.2268721,-33.9155193],[151.2268841,-33.9155209],[151.2268972,-33.9154501],[151.2269357,-33.9154549],[151.2269439,-33.9154197],[151.2271528,-33.9154469],[151.2271636,-33.9153657],[151.227198,-33.9153689],[151.2272021,-33.9153563],[151.2274548,-33.9153931],[151.2274833,-33.9152495],[151.226699,-33.9151412],[151.226609,-33.9151288],[151.2265788,-33.9152796],[151.2265379,-33.9154725]]]},"properties":{"id":45604587,"name":"Gym - B5, B6, B7","building":"university","osmId":"way/45604587"}},{"type":"Feature","id":45604879,"geometry":{"type":"Polygon","coordinates":[[[151.2335853,-33.918095],[151.2331942,-33.9180426],[151.2331448,-33.9182962],[151.2330055,-33.9182775],[151.2329741,-33.9184389],[151.2331228,-33.9184588],[151.2335045,-33.9185099],[151.2335853,-33.918095]]]},"properties":{"id":45604879,"name":"Vallentine Annexe - H22","building":"university","osmId":"way/45604879"}},{"type":"Feature","id":45604880,"geometry":{"type":"Polygon","coordinates":[[[151.2344551,-33.9180336],[151.2337826,-33.9179439],[151.2337421,-33.9181403],[151.2343907,-33.918231],[151.2344551,-33.9180336]]]},"properties":{"id":45604880,"name":"Solar Industrial Research Facility (SIRF) - G23","building":"university","osmId":"way/45604880"}},{"type":"Feature","id":64377210,"geometry":{"type":"Polygon","coordinates":[[[151.2271936,-33.9178941],[151.2271092,-33.9178273],[151.2271518,-33.9178311],[151.2272072,-33.9175721],[151.2270008,-33.9175418],[151.2265815,-33.9174853],[151.2264242,-33.9174665],[151.2262595,-33.9174449],[151.2264731,-33.9176758],[151.2263437,-33.9177555],[151.2264701,-33.9177735],[151.2265133,-33.9177486],[151.2265286,-33.9177699],[151.2264504,-33.9178164],[151.2264229,-33.917967],[151.2265066,-33.9178966],[151.2265083,-33.9178865],[151.2265211,-33.9178875],[151.2265188,-33.917899],[151.2269704,-33.9179578],[151.2269932,-33.9179605],[151.22706,-33.9180132],[151.2271936,-33.9178941]]]},"properties":{"id":64377210,"name":"Tyree Energy Technologies Building - H6","building":"university","osmId":"way/64377210"}},{"type":"Feature","id":71500653,"geometry":{"type":"Polygon","coordinates":[[[151.2311737,-33.9164079],[151.2311261,-33.9166529],[151.2311128,-33.916721],[151.2314828,-33.9167705],[151.2315383,-33.9164846],[151.2315436,-33.9164575],[151.2311737,-33.9164079]]]},"properties":{"id":71500653,"name":"Goldstein Dining Hall - D16","building":"university","osmId":"way/71500653"}},{"type":"Feature","id":101505149,"geometry":{"type":"Polygon","coordinates":[[[151.2354355,-33.9184696],[151.2354174,-33.9184667],[151.235401,-33.9185262],[151.2353661,-33.9185232],[151.2352971,-33.9188129],[151.2356547,-33.9188729],[151.2356402,-33.9188362],[151.235617,-33.9187773],[151.2356084,-33.9187496],[151.235566,-33.9187508],[151.2355435,-33.9187434],[151.2355291,-33.9187333],[151.2355131,-33.918713],[151.2355051,-33.9186839],[151.2355103,-33.9186581],[151.2355207,-33.9186191],[151.2355476,-33.9185677],[151.2355648,-33.9185455],[151.235655,-33.9185601],[151.2356581,-33.9185472],[151.235685,-33.9185516],[151.2356874,-33.9185417],[151.23576,-33.9185536],[151.2357202,-33.9187254],[151.2356447,-33.9187717],[151.2356802,-33.9188191],[151.2357159,-33.9188018],[151.2357438,-33.9188367],[151.2358362,-33.9187845],[151.2358956,-33.9185194],[151.2358536,-33.9185128],[151.2358677,-33.9184446],[151.2358989,-33.9184241],[151.2359184,-33.918427],[151.2359376,-33.9183322],[151.2359247,-33.9183182],[151.2359376,-33.918264],[151.2359178,-33.9182382],[151.2355245,-33.9181816],[151.2355243,-33.9181897],[151.2355141,-33.918188],[151.2355018,-33.9182462],[151.2354854,-33.9182436],[151.2354355,-33.9184696]]]},"properties":{"id":101505149,"name":"Australian Graduate School of Management - G27","building":"university","osmId":"way/101505149"}},{"type":"Feature","id":164552439,"geometry":{"type":"Polygon","coordinates":[[[151.230712,-33.9158012],[151.2306287,-33.9158774],[151.2307723,-33.915974],[151.2308525,-33.9158933],[151.230712,-33.9158012]]]},"properties":{"id":164552439,"name":"Fig Tree Theatre - B14d","building":"university","osmId":"way/164552439"}},{"type":"Feature","id":164553176,"geometry":{"type":"Polygon","coordinates":[[[151.2246523,-33.9171559],[151.2246009,-33.9174098],[151.2247871,-33.9174358],[151.2248386,-33.9171819],[151.2246523,-33.9171559]]]},"properties":{"id":164553176,"name":"University Regiment - H1","building":"university","osmId":"way/164553176"}},{"type":"Feature","id":164553276,"geometry":{"type":"Polygon","coordinates":[[[151.2248214,-33.9173845],[151.2247931,-33.9175248],[151.2250567,-33.9175615],[151.225085,-33.9174212],[151.2248214,-33.9173845]]]},"properties":{"id":164553276,"name":"J2","building":"university","osmId":"way/164553276"}},{"type":"Feature","id":164553343,"geometry":{"type":"Polygon","coordinates":[[[151.2250945,-33.9175635],[151.2252194,-33.9175803],[151.2252697,-33.9173224],[151.2251448,-33.9173056],[151.2250945,-33.9175635]]]},"properties":{"id":164553343,"name":"J2","building":"university","osmId":"way/164553343"}},{"type":"Feature","id":196223287,"geometry":{"type":"Polygon","coordinates":[[[151.2330988,-33.9170793],[151.2330355,-33.9173933],[151.2332423,-33.917424],[151.2332265,-33.9175015],[151.2332005,-33.9174977],[151.2331901,-33.9175507],[151.2332158,-33.917554],[151.2332056,-33.9176043],[151.233198,-33.9176032],[151.2331744,-33.9177189],[151.2331833,-33.9177206],[151.2332396,-33.9177281],[151.2332343,-33.9177536],[151.2332167,-33.9178394],[151.2332116,-33.9178645],[151.2331455,-33.9178543],[151.2331391,-33.9178543],[151.2331342,-33.9178554],[151.2331303,-33.9178577],[151.2331273,-33.9178623],[151.2331077,-33.9179548],[151.2331085,-33.9179586],[151.2331104,-33.9179612],[151.2331129,-33.9179637],[151.2331173,-33.9179655],[151.23319,-33.917976],[151.2331981,-33.9179309],[151.2332098,-33.9179326],[151.2332006,-33.9179772],[151.2335158,-33.918022],[151.2335318,-33.9179445],[151.2335614,-33.9178001],[151.2335667,-33.9177744],[151.2336276,-33.9174781],[151.2337901,-33.9175023],[151.2338131,-33.9173885],[151.2338183,-33.9173627],[151.2338543,-33.9171844],[151.2336986,-33.9171632],[151.2336327,-33.9171536],[151.2336174,-33.9171515],[151.2335307,-33.9171394],[151.2334573,-33.9171292],[151.2333119,-33.9171089],[151.2332433,-33.9170995],[151.2330988,-33.9170793]]]},"properties":{"id":196223287,"name":"UNSW Libary","building":"university","osmId":"way/196223287"}},{"type":"Feature","id":196250617,"geometry":{"type":"Polygon","coordinates":[[[151.2307623,-33.9163029],[151.2307984,-33.9162572],[151.230759,-33.9162353],[151.2307678,-33.9162236],[151.2307197,-33.9161963],[151.2306897,-33.9162006],[151.2306317,-33.9162746],[151.2307686,-33.9163501],[151.2307941,-33.9163203],[151.2307623,-33.9163029]]]},"properties":{"id":196250617,"name":"The White House - C15","building":"university","osmId":"way/196250617"}},{"type":"Feature","id":196250618,"geometry":{"type":"Polygon","coordinates":[[[151.2265675,-33.9166705],[151.2266306,-33.9167248],[151.2267001,-33.9167609],[151.2267926,-33.9167847],[151.2268758,-33.9167884],[151.2268919,-33.9167851],[151.2269593,-33.9167713],[151.2270324,-33.9167379],[151.2271005,-33.916688],[151.2271425,-33.9166276],[151.2271861,-33.9166537],[151.2272013,-33.9166369],[151.2272391,-33.9165949],[151.2272757,-33.9165376],[151.2272967,-33.9164714],[151.227303,-33.9163943],[151.2272916,-33.9163303],[151.2272758,-33.9162733],[151.227246,-33.9162202],[151.227095,-33.9163241],[151.2270519,-33.9162902],[151.2269764,-33.9162523],[151.2268924,-33.9162304],[151.2268054,-33.9162268],[151.2267175,-33.9162441],[151.2266405,-33.9162771],[151.2265743,-33.9163269],[151.2265301,-33.9163901],[151.2265078,-33.9164616],[151.226506,-33.9165361],[151.2265193,-33.9166058],[151.2265675,-33.9166705]]]},"properties":{"id":196250618,"name":"Roundhouse - E6","building":"university","osmId":"way/196250618"}},{"type":"Feature","id":265881082,"geometry":{"type":"Polygon","coordinates":[[[151.2339997,-33.9167616],[151.2340888,-33.9163223],[151.2343024,-33.9163522],[151.2343255,-33.9162384],[151.233906,-33.9161797],[151.2338819,-33.9162986],[151.2339645,-33.9163102],[151.2339354,-33.9164532],[151.2334767,-33.9163889],[151.2334733,-33.9164054],[151.2334592,-33.9164749],[151.2334536,-33.9165026],[151.2338837,-33.9165629],[151.2339141,-33.9165671],[151.233879,-33.9167396],[151.2338506,-33.9167356],[151.2338067,-33.9167295],[151.2337813,-33.9168544],[151.2337977,-33.9168572],[151.2338264,-33.9168622],[151.2338611,-33.916867],[151.2342255,-33.916917],[151.2342498,-33.9167965],[151.2339997,-33.9167616]]]},"properties":{"id":265881082,"name":"Chancellery Building - C25","building":"university","osmId":"way/265881082"}},{"type":"Feature","id":279932795,"geometry":{"type":"Polygon","coordinates":[[[151.2263927,-33.9161177],[151.2260815,-33.9160754],[151.2260601,-33.91618],[151.2261137,-33.9161867],[151.2260949,-33.9162801],[151.2261593,-33.9162891],[151.2261459,-33.9163914],[151.2263417,-33.9164115],[151.2263927,-33.9161177]]]},"properties":{"id":279932795,"name":"Squarehouse","building":"university","osmId":"way/279932795"}},{"type":"Feature","id":280269398,"geometry":{"type":"Polygon","coordinates":[[[151.2281144,-33.9163713],[151.2280994,-33.9164472],[151.2280527,-33.9166843],[151.2289121,-33.9168011],[151.2289735,-33.9165003],[151.2289746,-33.9164877],[151.2281144,-33.9163713]]]},"properties":{"id":280269398,"name":"Hilmer Building (E10)","building":"university","osmId":"way/280269398"}},{"type":"Feature","id":280411955,"geometry":{"type":"Polygon","coordinates":[[[151.2315384,-33.9175904],[151.2316516,-33.9174985],[151.2316175,-33.9174731],[151.2315867,-33.9174569],[151.2315849,-33.9174129],[151.2315581,-33.9174073],[151.2315658,-33.9173827],[151.2314972,-33.917372],[151.2314878,-33.9173961],[151.2314691,-33.9173961],[151.2314602,-33.9174085],[151.231448,-33.917436],[151.2314074,-33.917442],[151.2313722,-33.9174565],[151.2314399,-33.9175789],[151.2314878,-33.9175849],[151.2315384,-33.9175904]]]},"properties":{"id":280411955,"name":"Rex Vowels Theatre","building":"university","osmId":"way/280411955"}},{"type":"Feature","id":290473701,"geometry":{"type":"Polygon","coordinates":[[[151.2347705,-33.9177701],[151.2347528,-33.9178618],[151.2347433,-33.9179004],[151.2353373,-33.9179812],[151.2353744,-33.9179816],[151.2354015,-33.9179755],[151.2354512,-33.9179664],[151.2354899,-33.9179571],[151.2355316,-33.9179432],[151.2355803,-33.9179239],[151.2356412,-33.9178846],[151.2347705,-33.9177701]]]},"properties":{"id":290473701,"name":"Samuels Building - F25","building":"university","osmId":"way/290473701"}},{"type":"Feature","id":290473908,"geometry":{"type":"Polygon","coordinates":[[[151.2346599,-33.9179118],[151.2347079,-33.9176887],[151.2345944,-33.9176726],[151.2342522,-33.9176242],[151.2341022,-33.917603],[151.2341451,-33.9173673],[151.2339244,-33.9173372],[151.2338867,-33.9175499],[151.2338393,-33.9177891],[151.2346088,-33.9179048],[151.2346599,-33.9179118]]]},"properties":{"id":290473908,"name":"Mathews Building - F23","building":"university","osmId":"way/290473908"}},{"type":"Feature","id":306785249,"geometry":{"type":"Polygon","coordinates":[[[151.2313856,-33.9162294],[151.2314523,-33.9158812],[151.2316461,-33.9159067],[151.2316689,-33.9157873],[151.231339,-33.9157438],[151.2312495,-33.9162114],[151.2313856,-33.9162294]]]},"properties":{"id":306785249,"name":"Colombo House - B16","building":"university","osmId":"way/306785249"}},{"type":"Feature","id":306785250,"geometry":{"type":"Polygon","coordinates":[[[151.2317907,-33.916295],[151.2318663,-33.915929],[151.2320262,-33.9159518],[151.2320375,-33.9159534],[151.2320607,-33.9158411],[151.2317758,-33.9158006],[151.2316771,-33.9162789],[151.2317907,-33.916295]]]},"properties":{"id":306785250,"name":"Goldstein College - D17","building":"university","osmId":"way/306785250"}},{"type":"Feature","id":306785251,"geometry":{"type":"Polygon","coordinates":[[[151.2320607,-33.9158411],[151.2320375,-33.9159534],[151.2322313,-33.9159816],[151.2321596,-33.9163417],[151.2322973,-33.9163606],[151.2323918,-33.9158855],[151.2320607,-33.9158411]]]},"properties":{"id":306785251,"name":"Fig Tree Hall - B18","building":"university","osmId":"way/306785251"}},{"type":"Feature","id":306785252,"geometry":{"type":"Polygon","coordinates":[[[151.2322856,-33.9164127],[151.2322243,-33.9164044],[151.2322235,-33.9164085],[151.2321583,-33.916399],[151.2321551,-33.9164143],[151.2321158,-33.9164084],[151.2321222,-33.9164494],[151.2320931,-33.9164939],[151.2321012,-33.9165472],[151.2320765,-33.9165883],[151.232085,-33.9166381],[151.2320555,-33.9166863],[151.2320648,-33.9167312],[151.2319452,-33.9167136],[151.2319228,-33.9168182],[151.2320401,-33.9168353],[151.2320283,-33.9168807],[151.2321818,-33.9169031],[151.2322856,-33.9164127]]]},"properties":{"id":306785252,"name":"Philip Baxter College - D18","building":"university","osmId":"way/306785252"}},{"type":"Feature","id":306785253,"geometry":{"type":"Polygon","coordinates":[[[151.2316592,-33.9163289],[151.231566,-33.91678],[151.231717,-33.9168024],[151.2317201,-33.9167882],[151.2318195,-33.9168029],[151.2319228,-33.9168182],[151.2319452,-33.9167136],[151.2318426,-33.9166985],[151.2317119,-33.9166791],[151.2317382,-33.9166449],[151.2317295,-33.9165952],[151.2317436,-33.9165737],[151.2317408,-33.9165488],[151.2317565,-33.9165238],[151.2317518,-33.9164968],[151.2317638,-33.9164761],[151.2317586,-33.9164506],[151.2317742,-33.9164285],[151.2317661,-33.9164029],[151.2317937,-33.9163499],[151.2316592,-33.9163289]]]},"properties":{"id":306785253,"name":"Basser College - D17","building":"university","osmId":"way/306785253"}},{"type":"Feature","id":306785257,"geometry":{"type":"Polygon","coordinates":[[[151.2309732,-33.9158577],[151.2309542,-33.9159586],[151.2310905,-33.9159781],[151.2311095,-33.9158771],[151.2310898,-33.9158743],[151.2310969,-33.9158381],[151.2309976,-33.915825],[151.2309908,-33.9158606],[151.2309732,-33.9158577]]]},"properties":{"id":306785257,"name":"Old Tote Building - B15","building":"university","osmId":"way/306785257"}},{"type":"Feature","id":564194132,"geometry":{"type":"Polygon","coordinates":[[[151.2564279,-33.7805645],[151.2565351,-33.780698],[151.2570817,-33.7803946],[151.2569848,-33.780274],[151.2568924,-33.7803253],[151.256882,-33.7803124],[151.2564279,-33.7805645]]]},"properties":{"id":564194132,"name":"Unknown building","building":"yes","osmId":"way/564194132"}},{"type":"Feature","id":564194133,"geometry":{"type":"Polygon","coordinates":[[[151.2570845,-33.7805191],[151.2571495,-33.7805993],[151.2576411,-33.7803243],[151.2575761,-33.7802441],[151.2570845,-33.7805191]]]},"properties":{"id":564194133,"name":"Unknown building","building":"yes","osmId":"way/564194133"}},{"type":"Feature","id":564194134,"geometry":{"type":"Polygon","coordinates":[[[151.2571421,-33.7806268],[151.257025,-33.7804806],[151.2565929,-33.7807199],[151.2567101,-33.7808661],[151.2571421,-33.7806268]]]},"properties":{"id":564194134,"name":"Unknown building","building":"yes","osmId":"way/564194134"}},{"type":"Feature","id":564194135,"geometry":{"type":"Polygon","coordinates":[[[151.2565928,-33.7807515],[151.2565339,-33.7807834],[151.2565556,-33.7808112],[151.256451,-33.7808679],[151.2565295,-33.780968],[151.2566931,-33.7808793],[151.2565928,-33.7807515]]]},"properties":{"id":564194135,"name":"Unknown building","building":"yes","osmId":"way/564194135"}},{"type":"Feature","id":564194136,"geometry":{"type":"Polygon","coordinates":[[[151.257855,-33.7798539],[151.2578595,-33.780025],[151.2582052,-33.78002],[151.2581962,-33.7798477],[151.257855,-33.7798539]]]},"properties":{"id":564194136,"name":"Unknown building","building":"yes","osmId":"way/564194136"}},{"type":"Feature","id":564194137,"geometry":{"type":"Polygon","coordinates":[[[151.2577303,-33.7798701],[151.2577198,-33.780065],[151.2578235,-33.78007],[151.2578325,-33.7798751],[151.2577303,-33.7798701]]]},"properties":{"id":564194137,"name":"Unknown building","building":"yes","osmId":"way/564194137"}},{"type":"Feature","id":564194138,"geometry":{"type":"Polygon","coordinates":[[[151.2579342,-33.7797809],[151.2579377,-33.7798435],[151.2582019,-33.7798331],[151.2581984,-33.7797706],[151.2579342,-33.7797809]]]},"properties":{"id":564194138,"name":"Unknown building","building":"yes","osmId":"way/564194138"}},{"type":"Feature","id":564194139,"geometry":{"type":"Polygon","coordinates":[[[151.2579416,-33.7795733],[151.2579279,-33.7796471],[151.2582536,-33.7796925],[151.2582662,-33.7796225],[151.2579416,-33.7795733]]]},"properties":{"id":564194139,"name":"Unknown building","building":"yes","osmId":"way/564194139"}},{"type":"Feature","id":584816505,"geometry":{"type":"Polygon","coordinates":[[[151.2285255,-33.9157657],[151.2285203,-33.9157957],[151.2286015,-33.9158063],[151.2286066,-33.915777],[151.2285255,-33.9157657]]]},"properties":{"id":584816505,"name":"Campus Village Cafe","building":"yes","osmId":"way/584816505"}},{"type":"Feature","id":609912645,"geometry":{"type":"Polygon","coordinates":[[[151.2255015,-33.9173016],[151.225488,-33.9173732],[151.2257694,-33.9174101],[151.2257819,-33.9173343],[151.2255015,-33.9173016]]]},"properties":{"id":609912645,"name":"Unknown building","building":"yes","osmId":"way/609912645"}},{"type":"Feature","id":609912647,"geometry":{"type":"Polygon","coordinates":[[[151.2258176,-33.9175789],[151.2257998,-33.9176662],[151.2259319,-33.9176853],[151.2259476,-33.9176016],[151.22583,-33.9175803],[151.2258176,-33.9175789]]]},"properties":{"id":609912647,"name":"Unknown building","building":"yes","osmId":"way/609912647"}},{"type":"Feature","id":615650824,"geometry":{"type":"Polygon","coordinates":[[[151.2349276,-33.917227],[151.2348914,-33.917381],[151.2350492,-33.9174035],[151.2349761,-33.9177326],[151.2352224,-33.9177615],[151.2352898,-33.9175294],[151.2353164,-33.9174464],[151.2360259,-33.9175636],[151.2360615,-33.9174036],[151.2356617,-33.9173485],[151.2349276,-33.917227]]]},"properties":{"id":615650824,"name":"Biological Sciences North","building":"yes","osmId":"way/615650824"}},{"type":"Feature","id":615650825,"geometry":{"type":"Polygon","coordinates":[[[151.2353164,-33.9174464],[151.2352898,-33.9175294],[151.2353497,-33.9175375],[151.2352957,-33.9177637],[151.2356621,-33.9178181],[151.2359661,-33.9179886],[151.2360831,-33.9178434],[151.2360286,-33.9178158],[151.2360517,-33.9177861],[151.2360818,-33.9177888],[151.2361184,-33.9176309],[151.2360161,-33.9176112],[151.2360259,-33.9175636],[151.2353164,-33.9174464]]]},"properties":{"id":615650825,"name":"Biological Sciences South","building":"office","osmId":"way/615650825"}},{"type":"Feature","id":615652967,"geometry":{"type":"Polygon","coordinates":[[[151.2358808,-33.9165904],[151.2357993,-33.9169584],[151.2357393,-33.9172624],[151.2360121,-33.9173041],[151.2360027,-33.9173786],[151.2361658,-33.9174098],[151.2362159,-33.9171888],[151.2363351,-33.9166623],[151.2362016,-33.9166375],[151.2361699,-33.9167516],[151.2361508,-33.9167553],[151.2361125,-33.9169512],[151.2359927,-33.9169421],[151.2360789,-33.9166378],[151.2358808,-33.9165904]]]},"properties":{"id":615652967,"name":"Wallace Wurth","building":"yes","osmId":"way/615652967"}},{"type":"Feature","id":616805099,"geometry":{"type":"Polygon","coordinates":[[[151.231511,-33.9183212],[151.2313529,-33.9182989],[151.2310402,-33.9182566],[151.2310045,-33.918444],[151.2312594,-33.9184835],[151.231204,-33.9187806],[151.2312048,-33.9188059],[151.2314025,-33.9188348],[151.231511,-33.9183212]]]},"properties":{"id":616805099,"name":"Ainsworth Building J17","building":"yes","osmId":"way/616805099"}},{"type":"Feature","id":616805100,"geometry":{"type":"Polygon","coordinates":[[[151.2312048,-33.9188059],[151.2309501,-33.9188013],[151.2309066,-33.9190324],[151.231097,-33.9190585],[151.2312897,-33.9190857],[151.2313105,-33.9189807],[151.2313689,-33.918989],[151.2314025,-33.9188348],[151.2312048,-33.9188059]]]},"properties":{"id":616805100,"name":"Building K17","building":"yes","osmId":"way/616805100"}},{"type":"Feature","id":616805101,"geometry":{"type":"Polygon","coordinates":[[[151.2273928,-33.916593],[151.2280058,-33.916676],[151.2280542,-33.9164413],[151.2280994,-33.9164472],[151.228104,-33.9164238],[151.228059,-33.9164179],[151.2280841,-33.9162935],[151.2279254,-33.9162722],[151.2277315,-33.9162456],[151.2275293,-33.916218],[151.2274669,-33.9162107],[151.2273928,-33.916593]]]},"properties":{"id":616805101,"name":"Science and Engineering Building (E8)","building":"university","osmId":"way/616805101"}},{"type":"Feature","id":926419119,"geometry":{"type":"Polygon","coordinates":[[[151.2332167,-33.9178394],[151.2332343,-33.9177536],[151.2332396,-33.9177281],[151.2331833,-33.9177206],[151.2331618,-33.9178321],[151.2332167,-33.9178394]]]},"properties":{"id":926419119,"name":"Unknown building","building":"roof","osmId":"way/926419119"}},{"type":"Feature","id":926419120,"geometry":{"type":"Polygon","coordinates":[[[151.2332492,-33.9170697],[151.2332433,-33.9170995],[151.2333119,-33.9171089],[151.2333178,-33.9170792],[151.2332492,-33.9170697]]]},"properties":{"id":926419120,"name":"Unknown building","building":"yes","osmId":"way/926419120"}},{"type":"Feature","id":926419121,"geometry":{"type":"Polygon","coordinates":[[[151.2336327,-33.9171536],[151.2336986,-33.9171632],[151.2337043,-33.9171363],[151.2336384,-33.9171267],[151.2336327,-33.9171536]]]},"properties":{"id":926419121,"name":"Unknown building","building":"yes","osmId":"way/926419121"}},{"type":"Feature","id":926419125,"geometry":{"type":"Polygon","coordinates":[[[151.2292232,-33.9173324],[151.2292946,-33.9173452],[151.2292996,-33.9173202],[151.2292276,-33.9173102],[151.2292232,-33.9173324]]]},"properties":{"id":926419125,"name":"Unknown building","building":"yes","osmId":"way/926419125"}},{"type":"Feature","id":926419128,"geometry":{"type":"Polygon","coordinates":[[[151.2264242,-33.9174665],[151.2265815,-33.9174853],[151.2270008,-33.9175418],[151.2272072,-33.9175721],[151.2272442,-33.9175257],[151.2264015,-33.9174119],[151.2264242,-33.9174665]]]},"properties":{"id":926419128,"name":"Unknown building","building":"roof","osmId":"way/926419128"}},{"type":"Feature","id":961744566,"geometry":{"type":"Polygon","coordinates":[[[151.2275276,-33.9159175],[151.227477,-33.9161645],[151.2279394,-33.9162268],[151.2279833,-33.9159794],[151.2275276,-33.9159175]]]},"properties":{"id":961744566,"name":"Esme Timbery Creative Studio (D8)","building":"university","osmId":"way/961744566"}},{"type":"Feature","id":1002914347,"geometry":{"type":"Polygon","coordinates":[[[151.2257377,-33.9167218],[151.2257164,-33.9167253],[151.2257347,-33.9168011],[151.2257559,-33.9167976],[151.2257377,-33.9167218]]]},"properties":{"id":1002914347,"name":"Unknown building","building":"yes","osmId":"way/1002914347"}},{"type":"Feature","id":1002914348,"geometry":{"type":"Polygon","coordinates":[[[151.2257589,-33.9168112],[151.2257376,-33.9168147],[151.2257558,-33.9168905],[151.2257771,-33.916887],[151.2257589,-33.9168112]]]},"properties":{"id":1002914348,"name":"Unknown building","building":"yes","osmId":"way/1002914348"}},{"type":"Feature","id":1116164557,"geometry":{"type":"Polygon","coordinates":[[[151.2323533,-33.9176711],[151.232294,-33.9179646],[151.2325276,-33.9179953],[151.2325822,-33.9177035],[151.2323533,-33.9176711]]]},"properties":{"id":1116164557,"name":"Unknown building","building":"yes","osmId":"way/1116164557"}},{"type":"Feature","id":1178531022,"geometry":{"type":"Polygon","coordinates":[[[151.2324656,-33.9168326],[151.2324663,-33.9168391],[151.232465,-33.916851],[151.2324621,-33.9168605],[151.2324562,-33.9168717],[151.2324504,-33.9168789],[151.2327736,-33.9169243],[151.2327605,-33.9169933],[151.2334635,-33.9170905],[151.2334573,-33.9171292],[151.2336174,-33.9171515],[151.2336254,-33.9171115],[151.2338943,-33.9171507],[151.2338916,-33.9171635],[151.2339047,-33.9171652],[151.233898,-33.9172027],[151.2338873,-33.9172008],[151.2338561,-33.9173683],[151.2338183,-33.9173627],[151.2338131,-33.9173885],[151.2338517,-33.917395],[151.2337792,-33.9177837],[151.2335952,-33.9177587],[151.2335895,-33.9177878],[151.2338302,-33.9178241],[151.2339451,-33.9172122],[151.23395,-33.9172127],[151.2339659,-33.9171284],[151.2339735,-33.9170879],[151.2339082,-33.9170779],[151.2339073,-33.9170845],[151.2338215,-33.9170709],[151.2338611,-33.916867],[151.2337977,-33.9168572],[151.2337578,-33.9170621],[151.2336388,-33.917047],[151.2336472,-33.9170011],[151.2334818,-33.9169791],[151.2334742,-33.9170224],[151.2332287,-33.9169887],[151.2333313,-33.9164574],[151.2334592,-33.9164749],[151.2334733,-33.9164054],[151.2332831,-33.9163789],[151.2331646,-33.9169813],[151.232973,-33.9169553],[151.2329827,-33.9169042],[151.2327107,-33.9168653],[151.2327184,-33.9168148],[151.2326775,-33.9168091],[151.2326682,-33.916859],[151.2324656,-33.9168326]]]},"properties":{"id":1178531022,"name":"Unknown building","building":"roof","osmId":"way/1178531022"}},{"type":"Feature","id":1178531023,"geometry":{"type":"Polygon","coordinates":[[[151.2334051,-33.9161486],[151.2333965,-33.9161946],[151.233398,-33.9162026],[151.2334016,-33.9162064],[151.2334082,-33.9162089],[151.2335861,-33.9162358],[151.2336592,-33.9162469],[151.2336684,-33.9162456],[151.233676,-33.916241],[151.2336841,-33.9161866],[151.2336816,-33.9161815],[151.2336755,-33.9161769],[151.2334179,-33.9161397],[151.2334102,-33.9161414],[151.2334067,-33.9161448],[151.2334051,-33.9161486]]]},"properties":{"id":1178531023,"name":"Unknown building","building":"yes","osmId":"way/1178531023"}},{"type":"Feature","id":1178531024,"geometry":{"type":"Polygon","coordinates":[[[151.2334082,-33.9162089],[151.2333975,-33.916265],[151.2335759,-33.9162911],[151.2335861,-33.9162358],[151.2334082,-33.9162089]]]},"properties":{"id":1178531024,"name":"Unknown building","building":"yes","osmId":"way/1178531024"}},{"type":"Feature","id":1178531025,"geometry":{"type":"Polygon","coordinates":[[[151.2335895,-33.9163025],[151.2335756,-33.9163795],[151.2336442,-33.916388],[151.2336581,-33.916311],[151.2335895,-33.9163025]]]},"properties":{"id":1178531025,"name":"Unknown building","building":"yes","osmId":"way/1178531025"}},{"type":"Feature","id":1178531028,"geometry":{"type":"Polygon","coordinates":[[[151.2344584,-33.916752],[151.2344508,-33.9167917],[151.2347055,-33.9168256],[151.2347135,-33.9167839],[151.2347222,-33.9167393],[151.2344674,-33.9167054],[151.2344584,-33.916752]]]},"properties":{"id":1178531028,"name":"Unknown building","building":"roof","osmId":"way/1178531028"}},{"type":"Feature","id":1178531029,"geometry":{"type":"Polygon","coordinates":[[[151.234824,-33.916916],[151.2348018,-33.9169133],[151.2347625,-33.9171324],[151.23478,-33.9171345],[151.2348073,-33.9171379],[151.2348466,-33.9169188],[151.234824,-33.916916]]]},"properties":{"id":1178531029,"name":"Unknown building","building":"roof","osmId":"way/1178531029"}},{"type":"Feature","id":1178531030,"geometry":{"type":"Polygon","coordinates":[[[151.2342883,-33.9170546],[151.2343304,-33.9168389],[151.2343255,-33.9168382],[151.234286,-33.9168329],[151.2342439,-33.9170486],[151.2342883,-33.9170546]]]},"properties":{"id":1178531030,"name":"Unknown building","building":"roof","osmId":"way/1178531030"}},{"type":"Feature","id":1178531037,"geometry":{"type":"Polygon","coordinates":[[[151.232201,-33.9179973],[151.2321829,-33.9180782],[151.2325425,-33.9181295],[151.2325571,-33.9180447],[151.232201,-33.9179973]]]},"properties":{"id":1178531037,"name":"Unknown building","building":"roof","osmId":"way/1178531037"}},{"type":"Feature","id":1178531040,"geometry":{"type":"Polygon","coordinates":[[[151.2273463,-33.9181702],[151.2273172,-33.9183158],[151.2273174,-33.9183211],[151.2273188,-33.9183231],[151.227318,-33.9183251],[151.2273159,-33.9183271],[151.2272961,-33.9184894],[151.2272979,-33.9184934],[151.2273,-33.9184969],[151.2272971,-33.9184998],[151.227296,-33.9185061],[151.2272951,-33.9186467],[151.2272958,-33.918654],[151.2272983,-33.9186592],[151.2273039,-33.9186618],[151.2273448,-33.9186667],[151.2273514,-33.9186658],[151.2273571,-33.9186602],[151.2273602,-33.9186489],[151.227453,-33.9181724],[151.2274421,-33.918171],[151.2274408,-33.9181783],[151.2273583,-33.9181667],[151.2273499,-33.9181675],[151.2273463,-33.9181702]]]},"properties":{"id":1178531040,"name":"Moya Dodd Grandstand","building":"grandstand","osmId":"way/1178531040"}},{"type":"Feature","id":1178531047,"geometry":{"type":"Polygon","coordinates":[[[151.2285458,-33.9180028],[151.2284973,-33.9180872],[151.2284927,-33.9181038],[151.2284981,-33.918116],[151.228505,-33.9181224],[151.228592,-33.9181511],[151.2286751,-33.9179988],[151.2286228,-33.9179792],[151.2286059,-33.9179811],[151.2285458,-33.9180028]]]},"properties":{"id":1178531047,"name":"H11","building":"yes","osmId":"way/1178531047"}}]}